CCSDS_OMM_VERS,COMMENT,CREATION_DATE,ORIGINATOR,OBJECT_NAME,OBJECT_ID,CENTER_NAME,REF_FRAME,TIME_SYSTEM,MEAN_ELEMENT_THEORY,EPOCH,MEAN_MOTION,ECCENTRICITY,INCLINATION,RA_OF_ASC_NODE,ARG_OF_PERICENTER,MEAN_ANOMALY,EPHEMERIS_TYPE,CLASSIFICATION_TYPE,NORAD_CAT_ID,ELEMENT_SET_NO,REV_AT_EPOCH,BSTAR,MEAN_MOTION_DOT,MEAN_MOTION_DDOT,SEMIMAJOR_AXIS,PERIOD,APOAPSIS,PERIAPSIS,OBJECT_TYPE,RCS_SIZE,COUNTRY_CODE,LAUNCH_DATE,SITE,DECAY_DATE,FILE,GP_ID,TLE_LINE0,TLE_LINE1,TLE_LINE2
"2.0","GENERATED VIA SPACE-TRACK.ORG API","2012-08-10T01:09:49","18 SPCS","BLITS","2009-049G","EARTH","TEME","UTC","SGP4","2012-08-10T02:55:44.856479","14.21585195","0.00024570","98.6406","275.5169","234.3891","125.7068","0","U","35871","999","14962","0.00001109700000","-0.00000019","0.0000000000000","7198.138","101.295","821.771","818.234","PAYLOAD","SMALL","CIS","2009-09-17","TTMTR","","1332572","90010833","0 BLITS","1 35871U 09049G   12223.12204695 -.00000019  00000-0  11097-4 0  9998","2 35871 098.6406 275.5169 0002457 234.3891 125.7068 14.21585195149624"
"2.0","GENERATED VIA SPACE-TRACK.ORG API","2012-08-10T16:46:18","18 SPCS","BLITS","2009-049G","EARTH","TEME","UTC","SGP4","2012-08-10T16:26:34.128672","14.21585314","0.00024620","98.6404","276.0675","232.4329","127.6627","0","U","35871","999","14970","0.00001458600000","-0.00000011","0.0000000000000","7198.137","101.295","821.775","818.230","PAYLOAD","SMALL","CIS","2009-09-17","TTMTR","","1332854","90023619","0 BLITS","1 35871U 09049G   12223.68511723 -.00000011  00000-0  14586-4 0  9990","2 35871 098.6404 276.0675 0002462 232.4329 127.6627 14.21585314149705"
"2.0","GENERATED VIA SPACE-TRACK.ORG API","2012-08-11T08:56:01","18 SPCS","BLITS","2009-049G","EARTH","TEME","UTC","SGP4","2012-08-10T21:30:37.608768","14.21585401","0.00024440","98.6404","276.2742","232.1926","127.9031","0","U","35871","999","14973","0.00001808000000","-0.00000004","0.0000000000000","7198.137","101.295","821.761","818.243","PAYLOAD","SMALL","CIS","2009-09-17","TTMTR","","1333153","90036245","0 BLITS","1 35871U 09049G   12223.89626862 -.00000004 +00000-0 +18080-4 0  9999","2 35871 098.6404 276.2742 0002444 232.1926 127.9031 14.21585401149734"
"2.0","GENERATED VIA SPACE-TRACK.ORG API","2012-08-11T01:22:08","18 SPCS","BLITS","2009-049G","EARTH","TEME","UTC","SGP4","2012-08-11T02:34:41.090591","14.21585490","0.00024370","98.6409","276.4819","231.1356","128.9617","0","U","35871","999","14976","0.00002036400000","0.00000001","0.0000000000000","7198.137","101.295","821.756","818.248","PAYLOAD","SMALL","CIS","2009-09-17","TTMTR","","1333027","90026159","0 BLITS","1 35871U 09049G   12224.10742003  .00000001  00000-0  20364-4 0  9994","2 35871 098.6409 276.4819 0002437 231.1356 128.9617 14.21585490149766"
"2.0","GENERATED VIA SPACE-TRACK.ORG API","2012-08-11T16:55:30","18 SPCS","BLITS","2009-049G","EARTH","TEME","UTC","SGP4","2012-08-11T17:46:51.517055","14.21585514","0.00024200","98.6407","277.1020","231.3659","128.7289","0","U","35871","999","14985","0.00002066600000","0.00000002","0.0000000000000","7198.137","101.295","821.744","818.260","PAYLOAD","SMALL","CIS","2009-09-17","TTMTR","","1333286","90039476","0 BLITS","1 35871U 09049G   12224.74087404  .00000002  00000-0  20666-4 0  9997","2 35871 098.6407 277.1020 0002420 231.3659 128.7289 14.21585514149856"
"2.0","GENERATED VIA SPACE-TRACK.ORG API","2012-08-12T06:53:04","18 SPCS","BLITS","2009-049G","EARTH","TEME","UTC","SGP4","2012-08-11T21:09:33.860160","14.21585542","0.00023980","98.6407","277.2398","231.1760","128.9199","0","U","35871","999","14987","0.00002199000000","0.00000005","0.0000000000000","7198.137","101.295","821.728","818.276","PAYLOAD","SMALL","CIS","2009-09-17","TTMTR","","1333497","90050977","0 BLITS","1 35871U 09049G   12224.88164190 +.00000005 +00000-0 +21990-4 0  9994","2 35871 098.6407 277.2398 0002398 231.1760 128.9199 14.21585542149875"
"2.0","GENERATED VIA SPACE-TRACK.ORG API","2012-08-12T01:11:15","18 SPCS","BLITS","2009-049G","EARTH","TEME","UTC","SGP4","2012-08-12T02:13:37.348895","14.21585592","0.00024400","98.6398","277.4486","227.7662","132.3328","0","U","35871","999","14990","0.00002096300000","0.00000003","0.0000000000000","7198.137","101.295","821.758","818.245","PAYLOAD","SMALL","CIS","2009-09-17","TTMTR","","1333410","90041898","0 BLITS","1 35871U 09049G   12225.09279339  .00000003  00000-0  20963-4 0  9997","2 35871 098.6398 277.4486 0002440 227.7662 132.3328 14.21585592149906"
"2.0","GENERATED VIA SPACE-TRACK.ORG API","2012-08-12T16:56:36","18 SPCS","BLITS","2009-049G","EARTH","TEME","UTC","SGP4","2012-08-12T15:44:26.597759","14.21585501","0.00024600","98.6397","278.0000","225.5321","134.5645","0","U","35871","999","14998","0.00001598000000","-0.00000008","0.0000000000000","7198.137","101.295","821.773","818.231","PAYLOAD","SMALL","CIS","2009-09-17","TTMTR","","1333690","90055303","0 BLITS","1 35871U 09049G   12225.65586340 -.00000008  00000-0  15980-4 0  9991","2 35871 098.6397 278.0000 0002460 225.5321 134.5645 14.21585501149988"
"2.0","GENERATED VIA SPACE-TRACK.ORG API","2012-08-13T08:22:25","18 SPCS","BLITS","2009-049G","EARTH","TEME","UTC","SGP4","2012-08-12T20:48:30.097727","14.21585438","0.00024580","98.6397","278.2067","224.3970","135.6998","0","U","35871","999","15001","0.00001473400000","-0.00000011","0.0000000000000","7198.137","101.295","821.771","818.233","PAYLOAD","SMALL","CIS","2009-09-17","TTMTR","","1333909","90067172","0 BLITS","1 35871U 09049G   12225.86701502 -.00000011 +00000-0 +14734-4 0  9993","2 35871 098.6397 278.2067 0002458 224.3970 135.6998 14.21585438150015"
"2.0","GENERATED VIA SPACE-TRACK.ORG API","2012-08-13T01:10:33","18 SPCS","BLITS","2009-049G","EARTH","TEME","UTC","SGP4","2012-08-13T01:52:33.603744","14.21585477","0.00025190","98.6397","278.4136","223.1784","136.9213","0","U","35871","999","15004","0.00001400900000","-0.00000013","0.0000000000000","7198.137","101.295","821.815","818.189","PAYLOAD","SMALL","CIS","2009-09-17","TTMTR","","1333809","90057768","0 BLITS","1 35871U 09049G   12226.07816671 -.00000013  00000-0  14009-4 0  9998","2 35871 098.6397 278.4136 0002519 223.1784 136.9213 14.21585477150042"
"2.0","GENERATED VIA SPACE-TRACK.ORG API","2012-08-13T16:49:40","18 SPCS","BLITS","2009-049G","EARTH","TEME","UTC","SGP4","2012-08-13T17:04:44.023296","14.21585339","0.00025140","98.6399","279.0347","220.1284","139.9691","0","U","35871","999","15013","0.00000863180000","-0.00000024","0.0000000000000","7198.137","101.295","821.812","818.193","PAYLOAD","SMALL","CIS","2009-09-17","TTMTR","","1334155","90070782","0 BLITS","1 35871U 09049G   12226.71162064 -.00000024  00000-0  86318-5 0  9994","2 35871 098.6399 279.0347 0002514 220.1284 139.9691 14.21585339150132"
"2.0","GENERATED VIA SPACE-TRACK.ORG API","2012-08-14T08:43:54","18 SPCS","BLITS","2009-049G","EARTH","TEME","UTC","SGP4","2012-08-13T20:27:26.375040","14.21585355","0.00025170","98.6399","279.1725","219.7265","140.3727","0","U","35871","999","15015","0.00000977540000","-0.00000022","0.0000000000000","7198.137","101.295","821.814","818.191","PAYLOAD","SMALL","CIS","2009-09-17","TTMTR","","1334577","90082824","0 BLITS","1 35871U 09049G   12226.85238860 -.00000022 +00000-0 +97754-5 0  9991","2 35871 098.6399 279.1725 0002517 219.7265 140.3727 14.21585355150155"
"2.0","GENERATED VIA SPACE-TRACK.ORG API","2012-08-14T01:11:41","18 SPCS","BLITS","2009-049G","EARTH","TEME","UTC","SGP4","2012-08-14T01:31:29.862047","14.21585311","0.00025640","98.6398","279.3792","218.4589","141.6412","0","U","35871","999","15018","0.00000635730000","-0.00000029","0.0000000000000","7198.137","101.295","821.848","818.157","PAYLOAD","SMALL","CIS","2009-09-17","TTMTR","","1334460","90073387","0 BLITS","1 35871U 09049G   12227.06354007 -.00000029  00000-0  63573-5 0  9996","2 35871 098.6398 279.3792 0002564 218.4589 141.6412 14.21585311150187"
"2.0","GENERATED VIA SPACE-TRACK.ORG API","2012-08-14T08:51:02","18 SPCS","BLITS","2009-049G","EARTH","TEME","UTC","SGP4","2012-08-14T03:12:51.013727","14.21585242","0.00024860","98.6397","279.4485","219.3688","140.7295","0","U","35871","999","15019","0.00000298060000","-0.00000037","0.0000000000000","7198.138","101.295","821.792","818.213","PAYLOAD","SMALL","CIS","2009-09-17","TTMTR","","1334585","90083358","0 BLITS","1 35871U 09049G   12227.13392377 -.00000037  00000-0  29806-5 0  9996","2 35871 098.6397 279.4485 0002486 219.3688 140.7295 14.21585242150192"
"2.0","GENERATED VIA SPACE-TRACK.ORG API","2012-08-14T16:42:22","18 SPCS","BLITS","2009-049G","EARTH","TEME","UTC","SGP4","2012-08-14T16:43:40.329984","14.21585215","0.00025240","98.6396","279.9999","216.9818","143.1184","0","U","35871","999","15027","0.00000144640000","-0.00000040","0.0000000000000","7198.138","101.295","821.820","818.186","PAYLOAD","SMALL","CIS","2009-09-17","TTMTR","","1335029","90086099","0 BLITS","1 35871U 09049G   12227.69699456 -.00000040  00000-0  14464-5 0  9993","2 35871 098.6396 279.9999 0002524 216.9818 143.1184 14.21585215150270"
"2.0","GENERATED VIA SPACE-TRACK.ORG API","2012-08-15T08:34:17","18 SPCS","BLITS","2009-049G","EARTH","TEME","UTC","SGP4","2012-08-14T21:47:43.820447","14.21585326","0.00025160","98.6397","280.2068","217.1138","142.9876","0","U","35871","999","15030","0.00000544960000","-0.00000031","0.0000000000000","7198.137","101.295","821.813","818.191","PAYLOAD","SMALL","CIS","2009-09-17","TTMTR","","1335400","90097837","0 BLITS","1 35871U 09049G   12227.90814607 -.00000031 +00000-0 +54496-5 0  9993","2 35871 098.6397 280.2068 0002516 217.1138 142.9876 14.21585326150304"
